{
  "norad_id": 60388,
  "name": "QIANFAN-10",
  "history": [
    {
      "epoch": "2026-03-28T21:29:58.344288Z",
      "apogee_km": 1078.5269456788346,
      "perigee_km": 1058.6462787168775,
      "latitude_deg": 3.23397460439258e-05,
      "longitude_deg": 138.9023087172682,
      "height_km": 1078.7504825039337,
      "semi_major_axis_km": 7446.723612197856,
      "eccentricity": 0.00133486,
      "inclination_deg": 88.9699,
      "raan_deg": 287.7051,
      "arg_perigee_deg": 223.5721,
      "mean_anomaly_deg": 136.4377,
      "mean_motion_rev_day": 13.50998632
    },
    {
      "epoch": "2026-03-29T02:49:55.581024Z",
      "apogee_km": 1078.5374077101987,
      "perigee_km": 1058.6352948815256,
      "latitude_deg": -4.528078540567291e-05,
      "longitude_deg": 58.67172025413166,
      "height_km": 1078.8428000807405,
      "semi_major_axis_km": 7446.723351295862,
      "eccentricity": 0.0013363,
      "inclination_deg": 88.9698,
      "raan_deg": 287.682,
      "arg_perigee_deg": 222.859,
      "mean_anomaly_deg": 137.152,
      "mean_motion_rev_day": 13.50998703
    },
    {
      "epoch": "2026-03-30T03:43:02.704224Z",
      "apogee_km": 1078.5945634992822,
      "perigee_km": 1058.5777716248758,
      "latitude_deg": -3.4424839186732096e-05,
      "longitude_deg": 44.262137626984526,
      "height_km": 1079.2647156223647,
      "semi_major_axis_km": 7446.723167562079,
      "eccentricity": 0.001344,
      "inclination_deg": 88.9698,
      "raan_deg": 287.5741,
      "arg_perigee_deg": 219.5557,
      "mean_anomaly_deg": 140.4614,
      "mean_motion_rev_day": 13.50998753
    },
    {
      "epoch": "2026-03-30T05:29:41.783712Z",
      "apogee_km": 1078.5987345391595,
      "perigee_km": 1058.5734535979755,
      "latitude_deg": 0.00010326429451688251,
      "longitude_deg": 17.518608738142134,
      "height_km": 1079.2948267685933,
      "semi_major_axis_km": 7446.723094068567,
      "eccentricity": 0.00134457,
      "inclination_deg": 88.9697,
      "raan_deg": 287.5664,
      "arg_perigee_deg": 219.3132,
      "mean_anomaly_deg": 140.7045,
      "mean_motion_rev_day": 13.50998773
    },
    {
      "epoch": "2026-03-30T14:22:57.182880Z",
      "apogee_km": 1078.6205450230136,
      "perigee_km": 1058.5511801050316,
      "latitude_deg": -4.641916864417717e-05,
      "longitude_deg": -116.1991579210637,
      "height_km": 1079.4398516508518,
      "semi_major_axis_km": 7446.722862564022,
      "eccentricity": 0.00134753,
      "inclination_deg": 88.9697,
      "raan_deg": 287.5278,
      "arg_perigee_deg": 218.143,
      "mean_anomaly_deg": 141.8768,
      "mean_motion_rev_day": 13.50998836
    },
    {
      "epoch": "2026-03-30T19:42:54.423936Z",
      "apogee_km": 1078.634080535011,
      "perigee_km": 1058.5374608592756,
      "latitude_deg": -2.3284408275515097e-05,
      "longitude_deg": 163.57023760645262,
      "height_km": 1079.526257653551,
      "semi_major_axis_km": 7446.722770697143,
      "eccentricity": 0.00134936,
      "inclination_deg": 88.9697,
      "raan_deg": 287.5047,
      "arg_perigee_deg": 217.4377,
      "mean_anomaly_deg": 142.5835,
      "mean_motion_rev_day": 13.50998861
    },
    {
      "epoch": "2026-03-31T18:49:22.459872Z",
      "apogee_km": 1078.6890352338314,
      "perigee_km": 1058.4816095398019,
      "latitude_deg": 2.470546817727098e-05,
      "longitude_deg": 175.90422025056628,
      "height_km": 1079.8832667064182,
      "semi_major_axis_km": 7446.722322386817,
      "eccentricity": 0.0013568,
      "inclination_deg": 88.9696,
      "raan_deg": 287.4045,
      "arg_perigee_deg": 214.4065,
      "mean_anomaly_deg": 145.6209,
      "mean_motion_rev_day": 13.50998983
    },
    {
      "epoch": "2026-04-01T19:42:29.570112Z",
      "apogee_km": 1078.7571660707263,
      "perigee_km": 1058.4127217200048,
      "latitude_deg": -3.968900142898659e-05,
      "longitude_deg": 161.49459111292572,
      "height_km": 1080.2510107947444,
      "semi_major_axis_km": 7446.721943895365,
      "eccentricity": 0.001366,
      "inclination_deg": 88.9695,
      "raan_deg": 287.2965,
      "arg_perigee_deg": 211.1631,
      "mean_anomaly_deg": 148.8711,
      "mean_motion_rev_day": 13.50999086
    }
  ]
}